[
    {
        "Altitude(m)": 610399.569822406,
        "Argument of Periapsis(deg)": 0.0,
        "Eccentricity": 0.0,
        "Inclination(deg)": 60.0,
        "Latitude(deg)": 52.111448010562796,
        "Longitude(deg)": 132.5843713462002,
        "Mean Anomaly(deg)": 65.45449999999998,
        "RAAN(deg)": 184.99999999999997,
        "Satellite Name": "Test1 818",
        "Satellite Number": 818,
        "Semi-Major Axis(m)": 6980739.136638005,
        "Time(s)": 0
    },
    {
        "Altitude(m)": 610481.7205192465,
        "Argument of Periapsis(deg)": 0.00010418945913296404,
        "Eccentricity": 0.0,
        "Inclination(deg)": 60.0,
        "Latitude(deg)": 52.47104954615284,
        "Longitude(deg)": 133.3665104153513,
        "Mean Anomaly(deg)": 66.07460614546183,
        "RAAN(deg)": 184.99957995086024,
        "Satellite Name": "Test1 818",
        "Satellite Number": 818,
        "Semi-Major Axis(m)": 6980739.136638005,
        "Time(s)": 10
    },
    {
        "Altitude(m)": 610562.4100167446,
        "Argument of Periapsis(deg)": 0.0002083789182659281,
        "Eccentricity": 0.0,
        "Inclination(deg)": 60.0,
        "Latitude(deg)": 52.82480364504654,
        "Longitude(deg)": 134.16206256553642,
        "Mean Anomaly(deg)": 66.69471229092366,
        "RAAN(deg)": 184.99915990172053,
        "Satellite Name": "Test1 818",
        "Satellite Number": 818,
        "Semi-Major Axis(m)": 6980739.136638005,
        "Time(s)": 20
    },
    {
        "Altitude(m)": 610641.5908491544,
        "Argument of Periapsis(deg)": 0.00031256837739889213,
        "Eccentricity": 0.0,
        "Inclination(deg)": 60.0,
        "Latitude(deg)": 53.17254077911694,
        "Longitude(deg)": 134.97119230682716,
        "Mean Anomaly(deg)": 67.31481843638547,
        "RAAN(deg)": 184.99873985258077,
        "Satellite Name": "Test1 818",
        "Satellite Number": 818,
        "Semi-Major Axis(m)": 6980739.136638005,
        "Time(s)": 30
    },
    {
        "Altitude(m)": 610719.2165071964,
        "Argument of Periapsis(deg)": 0.0004167578365318562,
        "Eccentricity": 0.0,
        "Inclination(deg)": 60.0,
        "Latitude(deg)": 53.514087944318184,
        "Longitude(deg)": 135.7940525365118,
        "Mean Anomaly(deg)": 67.93492458184728,
        "RAAN(deg)": 184.998319803441,
        "Satellite Name": "Test1 818",
        "Satellite Number": 818,
        "Semi-Major Axis(m)": 6980739.136638005,
        "Time(s)": 40
    },
    {
        "Altitude(m)": 610795.2414603761,
        "Argument of Periapsis(deg)": 0.0005209472956648203,
        "Eccentricity": 0.0,
        "Inclination(deg)": 60.0,
        "Latitude(deg)": 53.84926878265536,
        "Longitude(deg)": 136.63078212488145,
        "Mean Anomaly(deg)": 68.55503072730914,
        "RAAN(deg)": 184.99789975430127,
        "Satellite Name": "Test1 818",
        "Satellite Number": 818,
        "Semi-Major Axis(m)": 6980739.136638005,
        "Time(s)": 50
    },
    {
        "Altitude(m)": 610869.6211788153,
        "Argument of Periapsis(deg)": 0.0006251367547977843,
        "Eccentricity": 0.0,
        "Inclination(deg)": 60.0,
        "Latitude(deg)": 54.177903728478306,
        "Longitude(deg)": 137.48150494824912,
        "Mean Anomaly(deg)": 69.17513687277096,
        "RAAN(deg)": 184.99747970516157,
        "Satellite Name": "Test1 818",
        "Satellite Number": 818,
        "Semi-Major Axis(m)": 6980739.136638005,
        "Time(s)": 60
    },
    {
        "Altitude(m)": 610942.3121545849,
        "Argument of Periapsis(deg)": 0.0007293262139307483,
        "Eccentricity": 0.0,
        "Inclination(deg)": 60.0,
        "Latitude(deg)": 54.49981018076469,
        "Longitude(deg)": 138.34632886062923,
        "Mean Anomaly(deg)": 69.79524301823282,
        "RAAN(deg)": 184.9970596560218,
        "Satellite Name": "Test1 818",
        "Satellite Number": 818,
        "Semi-Major Axis(m)": 6980739.136638005,
        "Time(s)": 70
    },
    {
        "Altitude(m)": 611013.2719225206,
        "Argument of Periapsis(deg)": 0.0008335156730637124,
        "Eccentricity": 0.0,
        "Inclination(deg)": 60.0,
        "Latitude(deg)": 54.81480270301884,
        "Longitude(deg)": 139.22534309681805,
        "Mean Anomaly(deg)": 70.41534916369464,
        "RAAN(deg)": 184.99663960688204,
        "Satellite Name": "Test1 818",
        "Satellite Number": 818,
        "Semi-Major Axis(m)": 6980739.136638005,
        "Time(s)": 80
    },
    {
        "Altitude(m)": 611082.4590805254,
        "Argument of Periapsis(deg)": 0.0009377051321966765,
        "Eccentricity": 0.0,
        "Inclination(deg)": 60.0,
        "Latitude(deg)": 55.122693252341776,
        "Longitude(deg)": 140.11861713967423,
        "Mean Anomaly(deg)": 71.03545530915646,
        "RAAN(deg)": 184.9962195577423,
        "Satellite Name": "Test1 818",
        "Satellite Number": 818,
        "Semi-Major Axis(m)": 6980739.136638005,
        "Time(s)": 90
    },
    {
        "Altitude(m)": 611149.8333093554,
        "Argument of Periapsis(deg)": 0.0010418945913296407,
        "Eccentricity": 0.0,
        "Inclination(deg)": 60.0,
        "Latitude(deg)": 55.42329143913425,
        "Longitude(deg)": 141.0261995473116,
        "Mean Anomaly(deg)": 71.65556145461828,
        "RAAN(deg)": 184.9957995086026,
        "Satellite Name": "Test1 818",
        "Satellite Number": 818,
        "Semi-Major Axis(m)": 6980739.136638005,
        "Time(s)": 100
    },
    {
        "Altitude(m)": 611215.3553918595,
        "Argument of Periapsis(deg)": 0.0011460840504626045,
        "Eccentricity": 0.0,
        "Inclination(deg)": 60.0,
        "Latitude(deg)": 55.716404818763635,
        "Longitude(deg)": 141.94811523755436,
        "Mean Anomaly(deg)": 72.27566760008014,
        "RAAN(deg)": 184.9953794594628,
        "Satellite Name": "Test1 818",
        "Satellite Number": 818,
        "Semi-Major Axis(m)": 6980739.136638005,
        "Time(s)": 110
    },
    {
        "Altitude(m)": 611278.9872316762,
        "Argument of Periapsis(deg)": 0.0012502735095955685,
        "Eccentricity": 0.0,
        "Inclination(deg)": 60.0,
        "Latitude(deg)": 56.001839216348635,
        "Longitude(deg)": 142.88436426735592,
        "Mean Anomaly(deg)": 72.89577374554196,
        "RAAN(deg)": 184.99495941032308,
        "Satellite Name": "Test1 818",
        "Satellite Number": 818,
        "Semi-Major Axis(m)": 6980739.136638005,
        "Time(s)": 120
    },
    {
        "Altitude(m)": 611340.6918713907,
        "Argument of Periapsis(deg)": 0.0013544629687285324,
        "Eccentricity": 0.0,
        "Inclination(deg)": 60.0,
        "Latitude(deg)": 56.27939908561224,
        "Longitude(deg)": 143.8349206080253,
        "Mean Anomaly(deg)": 73.51587989100376,
        "RAAN(deg)": 184.99453936118334,
        "Satellite Name": "Test1 818",
        "Satellite Number": 818,
        "Semi-Major Axis(m)": 6980739.136638005,
        "Time(s)": 130
    },
    {
        "Altitude(m)": 611400.4335101479,
        "Argument of Periapsis(deg)": 0.0014586524278614966,
        "Eccentricity": 0.0,
        "Inclination(deg)": 60.0,
        "Latitude(deg)": 56.54888790249754,
        "Longitude(deg)": 144.79972941891083,
        "Mean Anomaly(deg)": 74.1359860364656,
        "RAAN(deg)": 184.99411931204358,
        "Satellite Name": "Test1 818",
        "Satellite Number": 818,
        "Semi-Major Axis(m)": 6980739.136638005,
        "Time(s)": 140
    },
    {
        "Altitude(m)": 611458.1775206565,
        "Argument of Periapsis(deg)": 0.0015628418869944607,
        "Eccentricity": 0.0,
        "Inclination(deg)": 60.0,
        "Latitude(deg)": 56.81010859393892,
        "Longitude(deg)": 145.77870586260872,
        "Mean Anomaly(deg)": 74.75609218192744,
        "RAAN(deg)": 184.99369926290385,
        "Satellite Name": "Test1 818",
        "Satellite Number": 818,
        "Semi-Major Axis(m)": 6980739.136638005,
        "Time(s)": 150
    },
    {
        "Altitude(m)": 611513.8904656727,
        "Argument of Periapsis(deg)": 0.0016670313461274247,
        "Eccentricity": 0.0,
        "Inclination(deg)": 60.0,
        "Latitude(deg)": 57.0628640018407,
        "Longitude(deg)": 146.7717339678773,
        "Mean Anomaly(deg)": 75.37619832738928,
        "RAAN(deg)": 184.99327921376414,
        "Satellite Name": "Test1 818",
        "Satellite Number": 818,
        "Semi-Major Axis(m)": 6980739.136638005,
        "Time(s)": 160
    },
    {
        "Altitude(m)": 611567.5401138825,
        "Argument of Periapsis(deg)": 0.0017712208052603888,
        "Eccentricity": 0.0,
        "Inclination(deg)": 60.0,
        "Latitude(deg)": 57.30695738192663,
        "Longitude(deg)": 147.77866404807543,
        "Mean Anomaly(deg)": 75.99630447285112,
        "RAAN(deg)": 184.99285916462438,
        "Satellite Name": "Test1 818",
        "Satellite Number": 818,
        "Semi-Major Axis(m)": 6980739.136638005,
        "Time(s)": 170
    },
    {
        "Altitude(m)": 611619.095455205,
        "Argument of Periapsis(deg)": 0.001875410264393353,
        "Eccentricity": 0.0,
        "Inclination(deg)": 60.0,
        "Latitude(deg)": 57.54219293668278,
        "Longitude(deg)": 148.79931172305552,
        "Mean Anomaly(deg)": 76.61641061831295,
        "RAAN(deg)": 184.99243911548461,
        "Satellite Name": "Test1 818",
        "Satellite Number": 818,
        "Semi-Major Axis(m)": 6980739.136638005,
        "Time(s)": 180
    },
    {
        "Altitude(m)": 611668.526715484,
        "Argument of Periapsis(deg)": 0.0019795997235263173,
        "Eccentricity": 0.0,
        "Inclination(deg)": 60.0,
        "Latitude(deg)": 57.76837638114615,
        "Longitude(deg)": 149.83345705508245,
        "Mean Anomaly(deg)": 77.23651676377476,
        "RAAN(deg)": 184.99201906634488,
        "Satellite Name": "Test1 818",
        "Satellite Number": 818,
        "Semi-Major Axis(m)": 6980739.136638005,
        "Time(s)": 190
    }
]